start=new Date('2022-05-16T00:00:00.000Z').valueOf();
sats=[{"MEAN_ANOMALY":"305.2339","REV_AT_EPOCH":"7323","TIME_SYSTEM":"UTC","LAUNCH_DATE":"2021-01-20","PERIOD":"95.593","FILE":"3447521","OBJECT_NAME":"STARLINK-2121","TLE_LINE1":"1 47399U 21005BC  22135.84809865 -.00001366  00000-0 -72836-4 0  9999","EPHEMERIS_TYPE":"0","NORAD_CAT_ID":"47399","MEAN_ELEMENT_THEORY":"SGP4","APOAPSIS":"548.599","GP_ID":"203649630","TLE_LINE2":"2 47399  53.0537 178.8248 0001951  54.8833 305.2339 15.06388686 73233","INCLINATION":"53.0537","SEMIMAJOR_AXIS":"6925.383","MEAN_MOTION_DDOT":"0.0000000000000","OBJECT_ID":"2021-005BC","ECCENTRICITY":"0.00019510","MEAN_MOTION_DOT":"-0.00001366","OBJECT_TYPE":"PAYLOAD","PERIAPSIS":"545.897","DECAY_DATE":null,"RCS_SIZE":"LARGE","MEAN_MOTION":"15.06388686","EPOCH":"2022-05-15T20:21:15.723360","SITE":"AFETR","RA_OF_ASC_NODE":"178.8248","ARG_OF_PERICENTER":"54.8833","BSTAR":"-0.00007283600000","CENTER_NAME":"EARTH","CLASSIFICATION_TYPE":"U","ELEMENT_SET_NO":"999","COUNTRY_CODE":"US","REF_FRAME":"TEME"},{"EPOCH":"2022-05-15T18:21:49.265856","SITE":"AFETR","RA_OF_ASC_NODE":"159.1796","ARG_OF_PERICENTER":"46.4439","ELEMENT_SET_NO":"999","CENTER_NAME":"EARTH","CLASSIFICATION_TYPE":"U","BSTAR":"-0.00000263770000","COUNTRY_CODE":"US","REF_FRAME":"TEME","INCLINATION":"53.0546","SEMIMAJOR_AXIS":"6925.361","ECCENTRICITY":"0.00017670","MEAN_MOTION_DDOT":"0.0000000000000","OBJECT_ID":"2021-005BD","OBJECT_TYPE":"PAYLOAD","PERIAPSIS":"546.002","MEAN_MOTION_DOT":"-0.00000321","DECAY_DATE":null,"RCS_SIZE":"LARGE","MEAN_MOTION":"15.06395911","EPHEMERIS_TYPE":"0","MEAN_ELEMENT_THEORY":"SGP4","NORAD_CAT_ID":"47400","APOAPSIS":"548.450","TLE_LINE2":"2 47400  53.0546 159.1796 0001767  46.4439 313.6697 15.06395911 73509","GP_ID":"203648886","MEAN_ANOMALY":"313.6697","REV_AT_EPOCH":"7350","LAUNCH_DATE":"2021-01-20","TIME_SYSTEM":"UTC","PERIOD":"95.592","TLE_LINE1":"1 47400U 21005BD  22135.76515354 -.00000321  00000-0 -26377-5 0  9990","OBJECT_NAME":"STARLINK-2122","FILE":"3447521"},{"DECAY_DATE":null,"RCS_SIZE":"LARGE","MEAN_MOTION":"15.06399214","ECCENTRICITY":"0.00020160","MEAN_MOTION_DDOT":"0.0000000000000","OBJECT_ID":"2021-005BE","SEMIMAJOR_AXIS":"6925.351","INCLINATION":"53.0536","MEAN_MOTION_DOT":"-0.00001415","OBJECT_TYPE":"PAYLOAD","PERIAPSIS":"545.820","REF_FRAME":"TEME","COUNTRY_CODE":"US","ELEMENT_SET_NO":"999","CLASSIFICATION_TYPE":"U","BSTAR":"-0.00007610900000","CENTER_NAME":"EARTH","EPOCH":"2022-05-15T18:48:24.018912","ARG_OF_PERICENTER":"39.2261","RA_OF_ASC_NODE":"169.1175","SITE":"AFETR","LAUNCH_DATE":"2021-01-20","TIME_SYSTEM":"UTC","TLE_LINE1":"1 47401U 21005BE  22135.78361133 -.00001415  00000-0 -76109-4 0  9999","FILE":"3447521","OBJECT_NAME":"STARLINK-2123","PERIOD":"95.592","MEAN_ANOMALY":"320.8874","REV_AT_EPOCH":"7337","APOAPSIS":"548.612","TLE_LINE2":"2 47401  53.0536 169.1175 0002016  39.2261 320.8874 15.06399214 73374","GP_ID":"203649136","EPHEMERIS_TYPE":"0","NORAD_CAT_ID":"47401","MEAN_ELEMENT_THEORY":"SGP4"},{"REV_AT_EPOCH":"7337","MEAN_ANOMALY":"315.2383","TLE_LINE1":"1 47402U 21005BF  22135.80203704  .00000373  00000-0  43957-4 0  9997","FILE":"3447521","OBJECT_NAME":"STARLINK-2124","PERIOD":"95.592","LAUNCH_DATE":"2021-01-20","TIME_SYSTEM":"UTC","NORAD_CAT_ID":"47402","MEAN_ELEMENT_THEORY":"SGP4","EPHEMERIS_TYPE":"0","TLE_LINE2":"2 47402  53.0540 169.0211 0002068  44.8773 315.2383 15.06406062 73370","GP_ID":"203649385","APOAPSIS":"548.627","PERIAPSIS":"545.763","OBJECT_TYPE":"PAYLOAD","MEAN_MOTION_DOT":"0.00000373","ECCENTRICITY":"0.00020680","MEAN_MOTION_DDOT":"0.0000000000000","OBJECT_ID":"2021-005BF","INCLINATION":"53.0540","SEMIMAJOR_AXIS":"6925.330","RCS_SIZE":"LARGE","MEAN_MOTION":"15.06406062","DECAY_DATE":null,"ARG_OF_PERICENTER":"44.8773","SITE":"AFETR","RA_OF_ASC_NODE":"169.0211","EPOCH":"2022-05-15T19:14:56.000256","COUNTRY_CODE":"US","REF_FRAME":"TEME","ELEMENT_SET_NO":"999","CENTER_NAME":"EARTH","BSTAR":"0.00004395700000","CLASSIFICATION_TYPE":"U"},{"APOAPSIS":"548.474","TLE_LINE2":"2 47403  53.0539 168.9975 0001791  53.8200 306.2954 15.06393446 73376","GP_ID":"203650131","EPHEMERIS_TYPE":"0","NORAD_CAT_ID":"47403","MEAN_ELEMENT_THEORY":"SGP4","LAUNCH_DATE":"2021-01-20","TIME_SYSTEM":"UTC","PERIOD":"95.593","TLE_LINE1":"1 47403U 21005BG  22135.80941158 -.00000443  00000-0 -10839-4 0  9993","OBJECT_NAME":"STARLINK-2127","FILE":"3447521","MEAN_ANOMALY":"306.2954","REV_AT_EPOCH":"7337","ELEMENT_SET_NO":"999","CENTER_NAME":"EARTH","CLASSIFICATION_TYPE":"U","BSTAR":"-0.00001083900000","REF_FRAME":"TEME","COUNTRY_CODE":"US","EPOCH":"2022-05-15T19:25:33.160512","RA_OF_ASC_NODE":"168.9975","SITE":"AFETR","ARG_OF_PERICENTER":"53.8200","DECAY_DATE":null,"RCS_SIZE":"LARGE","MEAN_MOTION":"15.06393446","INCLINATION":"53.0539","SEMIMAJOR_AXIS":"6925.369","ECCENTRICITY":"0.00017910","MEAN_MOTION_DDOT":"0.0000000000000","OBJECT_ID":"2021-005BG","MEAN_MOTION_DOT":"-0.00000443","OBJECT_TYPE":"PAYLOAD","PERIAPSIS":"545.993"},{"NORAD_CAT_ID":"47404","MEAN_ELEMENT_THEORY":"SGP4","EPHEMERIS_TYPE":"0","TLE_LINE2":"2 47404  53.0539 169.0127 0002088  44.9775 315.1383 15.06397428 73375","GP_ID":"203648386","APOAPSIS":"548.667","REV_AT_EPOCH":"7337","MEAN_ANOMALY":"315.1383","PERIOD":"95.592","TLE_LINE1":"1 47404U 21005BH  22135.80572876  .00000329  00000-0  40996-4 0  9999","FILE":"3447521","OBJECT_NAME":"STARLINK-2128","LAUNCH_DATE":"2021-01-20","TIME_SYSTEM":"UTC","SITE":"AFETR","RA_OF_ASC_NODE":"169.0127","ARG_OF_PERICENTER":"44.9775","EPOCH":"2022-05-15T19:20:14.964864","ELEMENT_SET_NO":"999","CLASSIFICATION_TYPE":"U","CENTER_NAME":"EARTH","BSTAR":"0.00004099600000","COUNTRY_CODE":"US","REF_FRAME":"TEME","OBJECT_TYPE":"PAYLOAD","MEAN_MOTION_DOT":"0.00000329","PERIAPSIS":"545.775","SEMIMAJOR_AXIS":"6925.356","INCLINATION":"53.0539","ECCENTRICITY":"0.00020880","OBJECT_ID":"2021-005BH","MEAN_MOTION_DDOT":"0.0000000000000","MEAN_MOTION":"15.06397428","RCS_SIZE":"LARGE","DECAY_DATE":null},{"SITE":"AFETR","RA_OF_ASC_NODE":"199.9732","ARG_OF_PERICENTER":"48.7619","EPOCH":"2022-05-15T14:08:24.040896","CENTER_NAME":"EARTH","CLASSIFICATION_TYPE":"U","BSTAR":"0.00004278500000","ELEMENT_SET_NO":"999","COUNTRY_CODE":"US","REF_FRAME":"TEME","PERIAPSIS":"545.957","OBJECT_TYPE":"PAYLOAD","MEAN_MOTION_DOT":"0.00000356","SEMIMAJOR_AXIS":"6925.326","INCLINATION":"53.0543","MEAN_MOTION_DDOT":"0.0000000000000","OBJECT_ID":"2021-005BJ","ECCENTRICITY":"0.00017820","RCS_SIZE":"LARGE","MEAN_MOTION":"15.06407401","DECAY_DATE":null,"NORAD_CAT_ID":"47405","MEAN_ELEMENT_THEORY":"SGP4","EPHEMERIS_TYPE":"0","GP_ID":"203613745","TLE_LINE2":"2 47405  53.0543 199.9732 0001782  48.7619 311.3524 15.06407401 72911","APOAPSIS":"548.425","REV_AT_EPOCH":"7291","MEAN_ANOMALY":"311.3524","PERIOD":"95.592","OBJECT_NAME":"STARLINK-2130","FILE":"3447100","TLE_LINE1":"1 47405U 21005BJ  22135.58916714  .00000356  00000-0  42785-4 0  9996","TIME_SYSTEM":"UTC","LAUNCH_DATE":"2021-01-20"},{"MEAN_MOTION_DDOT":"0.0000000000000","OBJECT_ID":"2021-005BK","ECCENTRICITY":"0.00014910","INCLINATION":"53.0551","SEMIMAJOR_AXIS":"6925.351","PERIAPSIS":"546.183","OBJECT_TYPE":"PAYLOAD","MEAN_MOTION_DOT":"0.00000777","DECAY_DATE":null,"MEAN_MOTION":"15.06399248","RCS_SIZE":"LARGE","EPOCH":"2022-05-15T19:36:10.185984","ARG_OF_PERICENTER":"68.7440","RA_OF_ASC_NODE":"168.9648","SITE":"AFETR","COUNTRY_CODE":"US","REF_FRAME":"TEME","CENTER_NAME":"EARTH","CLASSIFICATION_TYPE":"U","BSTAR":"0.00007103500000","ELEMENT_SET_NO":"999","MEAN_ANOMALY":"291.3708","REV_AT_EPOCH":"7337","TIME_SYSTEM":"UTC","LAUNCH_DATE":"2021-01-20","OBJECT_NAME":"STARLINK-2133","FILE":"3447521","TLE_LINE1":"1 47406U 21005BK  22135.81678456  .00000777  00000-0  71035-4 0  9998","PERIOD":"95.592","EPHEMERIS_TYPE":"0","NORAD_CAT_ID":"47406","MEAN_ELEMENT_THEORY":"SGP4","APOAPSIS":"548.248","GP_ID":"203649886","TLE_LINE2":"2 47406  53.0551 168.9648 0001491  68.7440 291.3708 15.06399248 73375"},{"REV_AT_EPOCH":"7337","MEAN_ANOMALY":"317.5678","PERIOD":"95.592","TLE_LINE1":"1 47407U 21005BL  22135.82414949  .00000399  00000-0  45689-4 0  9991","FILE":"3447521","OBJECT_NAME":"STARLINK-2134","LAUNCH_DATE":"2021-01-20","TIME_SYSTEM":"UTC","NORAD_CAT_ID":"47407","MEAN_ELEMENT_THEORY":"SGP4","EPHEMERIS_TYPE":"0","TLE_LINE2":"2 47407  53.0515 168.9320 0002134  42.5476 317.5678 15.06407726 73375","GP_ID":"203649631","APOAPSIS":"548.668","OBJECT_TYPE":"PAYLOAD","MEAN_MOTION_DOT":"0.00000399","PERIAPSIS":"545.712","SEMIMAJOR_AXIS":"6925.325","INCLINATION":"53.0515","ECCENTRICITY":"0.00021340","MEAN_MOTION_DDOT":"0.0000000000000","OBJECT_ID":"2021-005BL","MEAN_MOTION":"15.06407726","RCS_SIZE":"LARGE","DECAY_DATE":null,"SITE":"AFETR","RA_OF_ASC_NODE":"168.9320","ARG_OF_PERICENTER":"42.5476","EPOCH":"2022-05-15T19:46:46.515936","ELEMENT_SET_NO":"999","CLASSIFICATION_TYPE":"U","BSTAR":"0.00004568900000","CENTER_NAME":"EARTH","REF_FRAME":"TEME","COUNTRY_CODE":"US"},{"MEAN_MOTION":"15.06369594","RCS_SIZE":"LARGE","DECAY_DATE":null,"PERIAPSIS":"546.594","OBJECT_TYPE":"PAYLOAD","MEAN_MOTION_DOT":"-0.00002422","INCLINATION":"53.0540","SEMIMAJOR_AXIS":"6925.442","MEAN_MOTION_DDOT":"0.0000000000000","OBJECT_ID":"2021-005BM","ECCENTRICITY":"0.00010290","CLASSIFICATION_TYPE":"U","CENTER_NAME":"EARTH","BSTAR":"-0.00014390000000","ELEMENT_SET_NO":"999","COUNTRY_CODE":"US","REF_FRAME":"TEME","RA_OF_ASC_NODE":"169.0667","SITE":"AFETR","ARG_OF_PERICENTER":"51.8095","EPOCH":"2022-05-15T19:04:22.134432","PERIOD":"95.594","OBJECT_NAME":"STARLINK-2135","FILE":"3447521","TLE_LINE1":"1 47408U 21005BM  22135.79470063 -.00002422  00000-0 -14390-3 0  9992","TIME_SYSTEM":"UTC","LAUNCH_DATE":"2021-01-20","REV_AT_EPOCH":"7337","MEAN_ANOMALY":"308.2986","GP_ID":"203648887","TLE_LINE2":"2 47408  53.0540 169.0667 0001029  51.8095 308.2986 15.06369594 73371","APOAPSIS":"548.019","NORAD_CAT_ID":"47408","MEAN_ELEMENT_THEORY":"SGP4","EPHEMERIS_TYPE":"0"}];
